CTC1_L_00165016-03
1 10062U 24645XQ  26075.70031250  .00000000  00000+0  00000-0 0  9997
2 10062  80.0000 180.0000 0000000   0.0000   0.0000 13.98210060    19
CTC1_L_00165016-04
1 10063U 22781CG  26075.70031250  .00000000  00000+0  00000-0 0  9997
2 10063  80.0000 180.0000 0000000   0.0000  90.0000 13.98210060    19
CTC1_L_00165017-01
1 10064U 22745FH  26075.70031250  .00000000  00000+0  00000-0 0  9998
2 10064  80.0000 192.0000 0000000   0.0000 192.0000 13.98210060    16
CTC1_L_00165017-02
1 10065U 24493ZC  26075.70031250  .00000000  00000+0  00000-0 0  9991
2 10065  80.0000 192.0000 0000000   0.0000 282.0000 13.98210060    17
CTC1_L_00165017-03
1 10066U 25336OO  26075.70031250  .00000000  00000+0  00000-0 0  9999
2 10066  80.0000 192.0000 0000000   0.0000  12.0000 13.98210060    19
CTC1_L_00165017-04
1 10067U 24510ML  26075.70031250  .00000000  00000+0  00000-0 0  9993
2 10067  80.0000 192.0000 0000000   0.0000 102.0000 13.98210060    10
CTC1_L_00165018-01
1 10068U 22998PC  26075.70031250  .00000000  00000+0  00000-0 0  9992
2 10068  80.0000 204.0000 0000000   0.0000 204.0000 13.98210060    18
CTC1_L_00165018-02
1 10069U 22959U   26075.70031250  .00000000  00000+0  00000-0 0  9990
2 10069  80.0000 204.0000 0000000   0.0000 294.0000 13.98210060    18
CTC1_L_00165018-03
1 10070U 24555FI  26075.70031250  .00000000  00000+0  00000-0 0  9996
2 10070  80.0000 204.0000 0000000   0.0000  24.0000 13.98210060    11
CTC1_L_00165018-04
1 10071U 24410ZP  26075.70031250  .00000000  00000+0  00000-0 0  9997
2 10071  80.0000 204.0000 0000000   0.0000 114.0000 13.98210060    12
CTC1_L_00165019-01
1 10072U 22459KO  26075.70031250  .00000000  00000+0  00000-0 0  9999
2 10072  80.0000 216.0000 0000000   0.0000 216.0000 13.98210060    19
CTC1_L_00165019-02
1 10073U 22678ZY  26075.70031250  .00000000  00000+0  00000-0 0  9993
2 10073  80.0000 216.0000 0000000   0.0000 306.0000 13.98210060    10
CTC1_L_00165019-03
1 10074U 26317R   26075.70031250  .00000000  00000+0  00000-0 0  9998
2 10074  80.0000 216.0000 0000000   0.0000  36.0000 13.98210060    11
CTC1_L_00165019-04
1 10075U 24096QV  26075.70031250  .00000000  00000+0  00000-0 0  9991
2 10075  80.0000 216.0000 0000000   0.0000 126.0000 13.98210060    12
CTC1_L_00165020-01
1 10076U 22401I   26075.70031250  .00000000  00000+0  00000-0 0  9990
2 10076  80.0000 228.0000 0000000   0.0000 228.0000 13.98210060    19
CTC1_L_00165020-02
1 10077U 23202RY  26075.70031250  .00000000  00000+0  00000-0 0  9991
2 10077  80.0000 228.0000 0000000   0.0000 318.0000 13.98210060    10
CTC1_L_00165020-03
1 10078U 24252A   26075.70031250  .00000000  00000+0  00000-0 0  9998
2 10078  80.0000 228.0000 0000000   0.0000  48.0000 13.98210060    11
CTC1_L_00165020-04
1 10079U 23744LE  26075.70031250  .00000000  00000+0  00000-0 0  9994
2 10079  80.0000 228.0000 0000000   0.0000 138.0000 13.98210060    12
CTC1_L_00165021-01
1 10080U 23027KH  26075.70031250  .00000000  00000+0  00000-0 0  9990
2 10080  80.0000 240.0000 0000000   0.0000 240.0000 13.98210060    12
CTC1_L_00165021-02
1 10081U 23768VD  26075.70031250  .00000000  00000+0  00000-0 0  9993
2 10081  80.0000 240.0000 0000000   0.0000 330.0000 13.98210060    13
CTC1_L_00165021-03
1 10082U 25534KG  26075.70031250  .00000000  00000+0  00000-0 0  9997
2 10082  80.0000 240.0000 0000000   0.0000  60.0000 13.98210060    14
CTC1_L_00165021-04
1 10083U 24817ZK  26075.70031250  .00000000  00000+0  00000-0 0  9991
2 10083  80.0000 240.0000 0000000   0.0000 150.0000 13.98210060    15
CTC1_L_00165022-01
1 10084U 24930CA  26075.70031250  .00000000  00000+0  00000-0 0  9998
2 10084  80.0000 252.0000 0000000   0.0000 252.0000 13.98210060    12
CTC1_L_00165022-02
1 10085U 26371UV  26075.70031250  .00000000  00000+0  00000-0 0  9990
2 10085  80.0000 252.0000 0000000   0.0000 342.0000 13.98210060    13
CTC1_L_00165022-03
1 10086U 24992EY  26075.70031250  .00000000  00000+0  00000-0 0  9998
2 10086  80.0000 252.0000 0000000   0.0000  72.0000 13.98210060    14
CTC1_L_00165022-04
1 10087U 22286MM  26075.70031250  .00000000  00000+0  00000-0 0  9993
2 10087  80.0000 252.0000 0000000   0.0000 162.0000 13.98210060    15
CTC1_L_00165023-01
1 10088U 25731DU  26075.70031250  .00000000  00000+0  00000-0 0  9992
2 10088  80.0000 264.0000 0000000   0.0000 264.0000 13.98210060    12
CTC1_L_00165023-02
1 10089U 22098YH  26075.70031250  .00000000  00000+0  00000-0 0  9996
2 10089  80.0000 264.0000 0000000   0.0000 354.0000 13.98210060    13
CTC1_L_00165023-03
1 10090U 24103Q   26075.70031250  .00000000  00000+0  00000-0 0  9997
2 10090  80.0000 264.0000 0000000   0.0000  84.0000 13.98210060    15
CTC1_L_00165023-04
1 10091U 23493IL  26075.70031250  .00000000  00000+0  00000-0 0  9999
2 10091  80.0000 264.0000 0000000   0.0000 174.0000 13.98210060    16
CTC1_L_00165024-01
1 10092U 22683FI  26075.70031250  .00000000  00000+0  00000-0 0  9990
2 10092  80.0000 276.0000 0000000   0.0000 276.0000 13.98210060    13
CTC1_L_00165024-02
1 10093U 26968ME  26075.70031250  .00000000  00000+0  00000-0 0  9991
2 10093  80.0000 276.0000 0000000   0.0000   6.0000 13.98210060    15
CTC1_L_00165024-03
1 10094U 25951YI  26075.70031250  .00000000  00000+0  00000-0 0  9993
2 10094  80.0000 276.0000 0000000   0.0000  96.0000 13.98210060    15
CTC1_L_00165024-04
1 10095U 25470EZ  26075.70031250  .00000000  00000+0  00000-0 0  9990
2 10095  80.0000 276.0000 0000000   0.0000 186.0000 13.98210060    16
CTC1_L_00165025-01
1 10096U 24051BU  26075.70031250  .00000000  00000+0  00000-0 0  9995
2 10096  80.0000 288.0000 0000000   0.0000 288.0000 13.98210060    13
CTC1_L_00165025-02
1 10097U 24544UI  26075.70031250  .00000000  00000+0  00000-0 0  9993
2 10097  80.0000 288.0000 0000000   0.0000  18.0000 13.98210060    15
CTC1_L_00165025-03
1 10098U 22698YW  26075.70031250  .00000000  00000+0  00000-0 0  9992
2 10098  80.0000 288.0000 0000000   0.0000 108.0000 13.98210060    16
CTC1_L_00165025-04
1 10099U 23281HN  26075.70031250  .00000000  00000+0  00000-0 0  9992
2 10099  80.0000 288.0000 0000000   0.0000 198.0000 13.98210060    16
CTC1_L_00165026-01
1 10100U 24205GJ  26075.70031250  .00000000  00000+0  00000-0 0  9992
2 10100  80.0000 300.0000 0000000   0.0000 300.0000 13.98210060    19
CTC1_L_00165026-02
1 10101U 23379XL  26075.70031250  .00000000  00000+0  00000-0 0  9994
2 10101  80.0000 300.0000 0000000   0.0000  30.0000 13.98210060    10
CTC1_L_00165026-03
1 10102U 22004TX  26075.70031250  .00000000  00000+0  00000-0 0  9999
2 10102  80.0000 300.0000 0000000   0.0000 120.0000 13.98210060    11
CTC1_L_00165026-04
1 10103U 22279L   26075.70031250  .00000000  00000+0  00000-0 0  9994
2 10103  80.0000 300.0000 0000000   0.0000 210.0000 13.98210060    12
CTC1_L_00165027-01
1 10104U 23678MQ  26075.70031250  .00000000  00000+0  00000-0 0  9999
2 10104  80.0000 312.0000 0000000   0.0000 312.0000 13.98210060    19
CTC1_L_00165027-02
1 10105U 22651MB  26075.70031250  .00000000  00000+0  00000-0 0  9990
2 10105  80.0000 312.0000 0000000   0.0000  42.0000 13.98210060    10
CTC1_L_00165027-03
1 10106U 24442IL  26075.70031250  .00000000  00000+0  00000-0 0  9991
2 10106  80.0000 312.0000 0000000   0.0000 132.0000 13.98210060    11
CTC1_L_00165027-04
1 10107U 26043EC  26075.70031250  .00000000  00000+0  00000-0 0  9991
2 10107  80.0000 312.0000 0000000   0.0000 222.0000 13.98210060    12
CTC1_L_00165028-01
1 10108U 23310CB  26075.70031250  .00000000  00000+0  00000-0 0  9996
2 10108  80.0000 324.0000 0000000   0.0000 324.0000 13.98210060    19
CTC1_L_00165028-02
1 10109U 25098VE  26075.70031250  .00000000  00000+0  00000-0 0  9992
2 10109  80.0000 324.0000 0000000   0.0000  54.0000 13.98210060    10
CTC1_L_00165028-03
1 10110U 25878DI  26075.70031250  .00000000  00000+0  00000-0 0  9990
2 10110  80.0000 324.0000 0000000   0.0000 144.0000 13.98210060    12
CTC1_L_00165028-04
1 10111U 24038Y   26075.70031250  .00000000  00000+0  00000-0 0  9998
2 10111  80.0000 324.0000 0000000   0.0000 234.0000 13.98210060    13
CTC1_L_00165029-01
1 10112U 23882FE  26075.70031250  .00000000  00000+0  00000-0 0  9995
2 10112  80.0000 336.0000 0000000   0.0000 336.0000 13.98210060    10
CTC1_L_00165029-02
1 10113U 22757KD  26075.70031250  .00000000  00000+0  00000-0 0  9996
2 10113  80.0000 336.0000 0000000   0.0000  66.0000 13.98210060    11
CTC1_L_00165029-03
1 10114U 24919HO  26075.70031250  .00000000  00000+0  00000-0 0  9999
2 10114  80.0000 336.0000 0000000   0.0000 156.0000 13.98210060    12
CTC1_L_00165029-04
1 10115U 26372TB  26075.70031250  .00000000  00000+0  00000-0 0  9995
2 10115  80.0000 336.0000 0000000   0.0000 246.0000 13.98210060    13
CTC1_L_00165030-01
1 10116U 22078GO  26075.70031250  .00000000  00000+0  00000-0 0  9995
2 10116  80.0000 348.0000 0000000   0.0000 348.0000 13.98210060    10
CTC1_L_00165030-02
1 10117U 24667D   26075.70031250  .00000000  00000+0  00000-0 0  9992
2 10117  80.0000 348.0000 0000000   0.0000  78.0000 13.98210060    11
CTC1_L_00165030-03
1 10118U 26786V   26075.70031250  .00000000  00000+0  00000-0 0  9997
2 10118  80.0000 348.0000 0000000   0.0000 168.0000 13.98210060    12
CTC1_L_00165030-04
1 10119U 22246R   26075.70031250  .00000000  00000+0  00000-0 0  9995
2 10119  80.0000 348.0000 0000000   0.0000 258.0000 13.98210060    13
